NORAD_CAT_ID,OBJECT_NAME,OBJECT_TYPE,EPOCH,MEAN_MOTION,ECCENTRICITY,INCLINATION,RA_OF_ASC_NODE,ARG_OF_PERICENTER,MEAN_ANOMALY,BSTAR,MEAN_MOTION_DOT,MEAN_MOTION_DDOT,TLE_LINE0,TLE_LINE1,TLE_LINE2,SEMIMAJOR_AXIS,PERIOD,APOGEE,PERIGEE,DECAYED
53145.0,STARLINK-4106,PAYLOAD,2023-03-12 09:47:37,15.08843364,0.000149,53.2186,42.0533,98.1975,261.9186,0.002287,0.00036301,0.0,0 STARLINK-4106,1 53145U 22083P   23071.40807104  .00036301  00000-0  22870-2 0  9994,2 53145  53.2186  42.0533 0001490  98.1975 261.9186 15.08843364 36807,6917.87,95.437,540.766,538.704,0.0
53145.0,STARLINK-4106,PAYLOAD,2023-03-12 22:30:41,15.0889095,0.0001284,53.2184,39.6772,85.521,274.5928,0.0023654,0.00037611,0.0,0 STARLINK-4106,1 53145U 22083P   23071.93797961  .00037611  00000-0  23654-2 0  9997,2 53145  53.2184  39.6772 0001284  85.5210 274.5928 15.08890950 36251,6917.725,95.434,540.478,538.701,0.0
53145.0,STARLINK-4106,PAYLOAD,2023-03-13 00:06:04,15.08897721,0.0001292,53.2184,39.379,90.6234,269.4906,0.0024485,0.00038957,0.0,0 STARLINK-4106,1 53145U 22083P   23072.00421675  .00038957  00000-0  24485-2 0  9999,2 53145  53.2184  39.3790 0001292  90.6234 269.4906 15.08897721 36892,6917.704,95.434,540.463,538.675,0.0
53145.0,STARLINK-4106,PAYLOAD,2023-03-13 01:41:27,15.08902431,0.0001304,53.2184,39.0812,93.5184,266.5957,0.0023739,0.0003776,0.0,0 STARLINK-4106,1 53145U 22083P   23072.07045374  .00037760  00000-0  23739-2 0  9996,2 53145  53.2184  39.0812 0001304  93.5184 266.5957 15.08902431 36275,6917.69,95.434,540.457,538.653,0.0
53145.0,STARLINK-4106,PAYLOAD,2023-03-14 04:43:00,15.08831903,0.0001465,53.2177,34.0257,59.0101,301.1035,0.0022072,0.00035007,0.0,0 STARLINK-4106,1 53145U 22083P   23073.19652938  .00035007  00000-0  22072-2 0  9991,2 53145  53.2177  34.0257 0001465  59.0101 301.1035 15.08831903 37076,6917.905,95.438,540.784,538.757,0.0
53145.0,STARLINK-4106,PAYLOAD,2023-03-14 14:15:18,15.08841688,0.0001255,53.2176,32.2414,77.276,282.8372,0.0011458,0.00017995,0.0,0 STARLINK-4106,1 53145U 22083P   23073.59396963  .00017995  00000-0  11458-2 0  9990,2 53145  53.2176  32.2414 0001255  77.2760 282.8372 15.08841688 36507,6917.875,95.437,540.608,538.872,0.0
53145.0,STARLINK-4106,PAYLOAD,2023-03-15 04:33:46,15.08886022,0.000146,53.2178,29.5676,78.1545,281.9611,0.0022561,0.00035846,0.0,0 STARLINK-4106,1 53145U 22083P   23074.19012053  .00035846  00000-0  22561-2 0  9994,2 53145  53.2178  29.5676 0001460  78.1545 281.9611 15.08886022 37224,6917.74,95.435,540.615,538.595,0.0
53145.0,STARLINK-4106,PAYLOAD,2023-03-15 06:09:09,15.08895502,0.0001434,53.2171,29.2686,76.0344,284.0807,0.0025582,0.00040723,0.0,0 STARLINK-4106,1 53145U 22083P   23074.25635775  .00040723  00000-0  25582-2 0  9999,2 53145  53.2171  29.2686 0001434  76.0344 284.0807 15.08895502 36605,6917.711,95.434,540.568,538.584,0.0
53145.0,STARLINK-4106,PAYLOAD,2023-03-15 20:27:37,15.0884495,9.69e-05,53.2172,26.591,111.0351,249.0744,5.8137e-05,6.38e-06,0.0,0 STARLINK-4106,1 53145U 22083P   23074.85251780  .00000638  00000-0  58137-4 0  9990,2 53145  53.2172  26.5910 0000969 111.0351 249.0744 15.08844950 37328,6917.865,95.437,540.401,539.06,0.0
53145.0,STARLINK-4106,PAYLOAD,2023-03-16 05:59:56,15.08829765,7.96e-05,53.217,24.8094,101.5307,258.5774,0.0015249,0.00024057,0.0,0 STARLINK-4106,1 53145U 22083P   23075.24996331  .00024057  00000-0  15249-2 0  9998,2 53145  53.2170  24.8094 0000796 101.5307 258.5774 15.08829765 36754,6917.912,95.438,540.327,539.226,0.0
53145.0,STARLINK-4106,PAYLOAD,2023-03-17 02:39:58,15.08833368,0.000109,53.2172,20.9411,113.1142,246.9965,0.00062994,9.75e-05,0.0,0 STARLINK-4106,1 53145U 22083P   23076.11109281  .00009750  00000-0  62994-3 0  9998,2 53145  53.2172  20.9411 0001090 113.1142 246.9965 15.08833368 37512,6917.901,95.438,540.52,539.012,0.0
53145.0,STARLINK-4106,PAYLOAD,2023-03-17 13:47:40,15.08836542,7.7e-05,53.2167,18.8593,103.5875,256.5203,0.00038302,5.813e-05,0.0,0 STARLINK-4106,1 53145U 22083P   23076.57477496  .00005813  00000-0  38302-3 0  9996,2 53145  53.2167  18.8593 0000770 103.5875 256.5203 15.08836542 36959,6917.891,95.438,540.289,539.223,0.0
53145.0,STARLINK-4106,PAYLOAD,2023-03-17 20:09:13,15.08836144,8.59e-05,53.2163,17.6702,101.7099,258.399,0.00031094,4.664e-05,0.0,0 STARLINK-4106,1 53145U 22083P   23076.83973636  .00004664  00000-0  31094-3 0  9996,2 53145  53.2163  17.6702 0000859 101.7099 258.3990 15.08836144 37626,6917.892,95.438,540.351,539.163,0.0
53145.0,STARLINK-4106,PAYLOAD,2023-03-18 05:41:31,15.08844323,0.000108,53.2165,15.8863,91.9321,268.1795,0.00040374,6.144e-05,0.0,0 STARLINK-4106,1 53145U 22083P   23077.23717387  .00006144  00000-0  40374-3 0  9996,2 53145  53.2165  15.8863 0001080  91.9321 268.1795 15.08844323 37058,6917.867,95.437,540.479,538.985,0.0
53145.0,STARLINK-4106,PAYLOAD,2023-03-19 02:21:32,15.08849852,9.61e-05,53.2171,12.0206,81.8087,278.3014,0.00023635,3.477e-05,0.0,0 STARLINK-4106,1 53145U 22083P   23078.09829036  .00003477  00000-0  23635-3 0  9993,2 53145  53.2171  12.0206 0000961  81.8087 278.3014 15.08849852 37812,6917.85,95.437,540.38,539.05,0.0
53145.0,STARLINK-4106,PAYLOAD,2023-03-19 11:53:51,15.08845744,0.0001066,53.2172,10.2334,78.8009,281.3103,0.00016052,2.268e-05,0.0,0 STARLINK-4106,1 53145U 22083P   23078.49573094  .00002268  00000-0  16052-3 0  9999,2 53145  53.2172  10.2334 0001066  78.8009 281.3103 15.08845744 37248,6917.863,95.437,540.465,538.99,0.0
53145.0,STARLINK-4106,PAYLOAD,2023-03-20 02:12:19,15.08849576,9.39e-05,53.2171,7.5626,86.9994,273.1105,0.00021336,3.11e-05,0.0,0 STARLINK-4106,1 53145U 22083P   23079.09188993  .00003110  00000-0  21336-3 0  9994,2 53145  53.2171   7.5626 0000939  86.9994 273.1105 15.08849576 37339,6917.851,95.437,540.366,539.067,0.0
53145.0,STARLINK-4106,PAYLOAD,2023-03-21 05:13:52,15.08850626,0.0001117,53.2172,2.5057,82.9597,277.1522,0.00019103,2.755e-05,0.0,0 STARLINK-4106,1 53145U 22083P   23080.21796764  .00002755  00000-0  19103-3 0  9994,2 53145  53.2172   2.5057 0001117  82.9597 277.1522 15.08850626 38131,6917.848,95.437,540.486,538.94,0.0
53145.0,STARLINK-4106,PAYLOAD,2023-03-22 03:29:17,15.08820622,0.0001298,53.2162,358.3435,97.918,262.196,-0.00038778,-6.451e-05,0.0,0 STARLINK-4106,1 53145U 22083P   23081.14533650 -.00006451  00000-0 -38778-3 0  9998,2 53145  53.2162 358.3435 0001298  97.9180 262.1960 15.08820622 38274,6917.94,95.439,540.703,538.907,0.0
53145.0,STARLINK-4106,PAYLOAD,2023-03-23 03:20:02,15.08867608,0.0001352,53.2172,353.8818,100.5484,259.566,0.00040689,6.198e-05,0.0,0 STARLINK-4106,1 53145U 22083P   23082.13892112  .00006198  00000-0  40689-3 0  9999,2 53145  53.2172 353.8818 0001352 100.5484 259.5660 15.08867608 38428,6917.796,95.436,540.596,538.726,0.0
53145.0,STARLINK-4106,PAYLOAD,2023-03-23 22:24:42,15.08829038,0.000132,53.2163,350.3136,119.6275,240.4849,0.00025264,3.734e-05,0.0,0 STARLINK-4106,1 53145U 22083P   23082.93382354  .00003734  00000-0  25264-3 0  9994,2 53145  53.2163 350.3136 0001320 119.6275 240.4849 15.08829038 37913,6917.914,95.438,540.692,538.866,0.0
53145.0,STARLINK-4106,PAYLOAD,2023-03-24 03:10:50,15.08867577,0.0001491,53.2169,349.4218,77.3145,282.8013,0.00083635,0.00013058,0.0,0 STARLINK-4106,1 53145U 22083P   23083.13253139  .00013058  00000-0  83635-3 0  9991,2 53145  53.2169 349.4218 0001491  77.3145 282.8013 15.08867577 38570,6917.796,95.436,540.693,538.63,0.0
53145.0,STARLINK-4106,PAYLOAD,2023-03-24 22:15:27,15.0886151,0.0001361,53.2164,345.8539,96.4986,263.6161,0.00019303,2.787e-05,0.0,0 STARLINK-4106,1 53145U 22083P   23083.92739864  .00002787  00000-0  19303-3 0  9990,2 53145  53.2164 345.8539 0001361  96.4986 263.6161 15.08861510 38068,6917.815,95.436,540.621,538.738,0.0
53145.0,STARLINK-4106,PAYLOAD,2023-03-25 03:01:36,15.08878747,0.0001262,53.2168,344.9612,89.1529,270.9607,0.00058151,8.989e-05,0.0,0 STARLINK-4106,1 53145U 22083P   23084.12611133  .00008989  00000-0  58151-3 0  9995,2 53145  53.2168 344.9612 0001262  89.1529 270.9607 15.08878747 38725,6917.762,95.435,540.5,538.754,0.0
53145.0,STARLINK-4106,PAYLOAD,2023-03-25 20:30:52,15.08825109,0.0001093,53.217,341.6917,79.1786,280.9329,-0.0002942,-4.965e-05,0.0,0 STARLINK-4106,1 53145U 22083P   23084.85477462 -.00004965  00000-0 -29420-3 0  9999,2 53145  53.2170 341.6917 0001093  79.1786 280.9329 15.08825109 38834,6917.926,95.438,540.547,539.035,0.0
53145.0,STARLINK-4106,PAYLOAD,2023-03-25 22:06:15,15.08824791,0.0001139,53.2169,341.3943,80.4078,279.7043,-0.0002963,-4.998e-05,0.0,0 STARLINK-4106,1 53145U 22083P   23084.92101524 -.00004998  00000-0 -29630-3 0  9999,2 53145  53.2169 341.3943 0001139  80.4078 279.7043 15.08824791 38215,6917.927,95.439,540.58,539.004,0.0
53145.0,STARLINK-4106,PAYLOAD,2023-03-26 21:57:03,15.08835085,0.0001118,53.2165,336.934,86.5458,273.5662,-0.00017495,-3.071e-05,0.0,0 STARLINK-4106,1 53145U 22083P   23085.91462161 -.00003071  00000-0 -17495-3 0  9993,2 53145  53.2165 336.9340 0001118  86.5458 273.5662 15.08835085 38361,6917.895,95.438,540.534,538.987,0.0
53145.0,STARLINK-4106,PAYLOAD,2023-03-27 02:43:12,15.0884044,0.0001104,53.2164,336.042,87.2734,272.8384,-3.549e-05,-8.53e-06,0.0,0 STARLINK-4106,1 53145U 22083P   23086.11333970 -.00000853  00000-0 -35490-4 0  9992,2 53145  53.2164 336.0420 0001104  87.2734 272.8384 15.08840440 39028,6917.879,95.438,540.508,538.98,0.0
53145.0,STARLINK-4106,PAYLOAD,2023-03-27 20:12:27,15.08837142,0.0001198,53.2163,332.7688,88.3053,271.8076,0.00039521,6.007e-05,0.0,0 STARLINK-4106,1 53145U 22083P   23086.84198832  .00006007  00000-0  39521-3 0  9991,2 53145  53.2163 332.7688 0001198  88.3053 271.8076 15.08837142 39139,6917.889,95.438,540.583,538.925,0.0
53145.0,STARLINK-4106,PAYLOAD,2023-03-27 21:47:50,15.08836642,0.0001165,53.2161,332.471,87.779,272.3335,0.00041251,6.283e-05,0.0,0 STARLINK-4106,1 53145U 22083P   23086.90822747  .00006283  00000-0  41251-3 0  9996,2 53145  53.2161 332.4710 0001165  87.7790 272.3335 15.08836642 38514,6917.891,95.438,540.562,538.95,0.0
